BEESAT-4                
1 41619U 16040W   22138.11016517  .00021089  00000+0  72166-3 0  9994
2 41619  97.2187 189.5627 0009013 213.7478 146.3190 15.30226031316085
CAS-2T & KS-1Q          
1 41847U 16066G   22138.15609221  .00000752  00000+0  12408-3 0  9996
2 41847  98.5524 202.8529 0362949 300.6091  55.9766 14.38544551289994
NAYIF-1 (EO-88)         
1 42017U 17008BX  22138.43139102  .00024957  00000+0  76809-3 0  9998
2 42017  97.2700 204.9974 0004457  12.7641 347.3714 15.33631818292479
ZHUHAI-1 02 (CAS-4B)    
1 42759U 17034B   22138.72814978  .00003795  00000+0  23193-3 0  9998
2 42759  43.0161 136.5206 0007366 101.0763  67.8120 15.11667820271851
ZHUHAI-1 01 (CAS-4A)    
1 42761U 17034D   22138.73290509  .00003645  00000+0  22274-3 0  9993
2 42761  43.0163 135.2998 0007695 102.9080 247.1174 15.11758314271858
MAX VALIER SAT          
1 42778U 17036P   22138.83048726  .00013420  00000+0  51568-3 0  9996
2 42778  97.2073 180.9544 0012868  76.4175 283.8497 15.26468572272383
RADFXSAT (FOX-1B)       
1 43017U 17073E   22138.24454354  .00006206  00000+0  47208-3 0  9997
2 43017  97.6779  33.6687 0247778 286.9046  70.5138 14.81218113242647
FOX-1D (AO-92)          
1 43137U 18004AC  22138.45162228  .00016264  00000+0  58273-3 0  9993
2 43137  97.3691 213.8881 0009419 108.6820 251.5444 15.28777660241768
DIWATA-2B               
1 43678U 18084H   22138.80957631  .00001553  00000+0  15843-3 0  9991
2 43678  97.9654 271.7360 0010529  31.0159 329.1692 14.92118217193430
ES'HAIL 2               
1 43700U 18090A   22136.86668990  .00000152  00000+0  00000+0 0  9994
2 43700   0.0589  99.0150 0002876 347.1547 126.1944  1.00273323 12715
FOX-1CLIFF (AO-95)      
1 43770U 18099N   22138.16446101  .00003988  00000+0  35733-3 0  9998
2 43770  97.6213 205.3005 0014601  22.9373 337.2498 14.96275022188487
ITASAT 1                
1 43786U 18099AE  22138.16088888  .00003270  00000+0  29259-3 0  9999
2 43786  97.6247 206.1993 0015145  15.9901 344.1796 14.96447060188525
JY1SAT (JO-97)          
1 43803U 18099AX  22138.18835694  .00005213  00000+0  45809-3 0  9994
2 43803  97.6199 205.9734 0014599  15.1286 345.0369 14.96898436188546
UWE-4                   
1 43880U 18111E   22138.47705232  .00005506  00000+0  47074-3 0  9991
2 43880  97.6694  45.3107 0013414  66.1304 294.1322 14.97962643183218
NEXUS (FO-99)           
1 43937U 19003F   22138.35263516  .00018612  00000+0  64043-3 0  9993
2 43937  97.1322 172.8858 0018977 259.1464 100.7641 15.29934036185379
PSAT2 (NO-104)          
1 44354U 19036R   22138.35345276  .00082840 -47188-5  80201-3 0  9990
2 44354  28.5275  26.4221 0245265 352.3514   7.3386 15.35407971160045
JAISAT-1                
1 44419U 19038F   22138.88834180  .00012036  00000+0  61235-3 0  9990
2 44419  97.6344 108.7877 0017774 229.6977 130.2703 15.16848856158577
DUCHIFAT-3              
1 44854U 19089C   22138.77093736  .00004958  00000+0  38812-3 0  9990
2 44854  36.9674 276.2910 0009378 337.2846  22.7636 15.00859733133474
CAS-6 (TO-108)          
1 44881U 19093C   22138.72997008  .00000721  00000+0  98216-4 0  9994
2 44881  97.8928 218.3648 0013680 284.8096  75.1612 14.81688070130376
RS-44 & BREEZE-KM R/B   
1 44909U 19096E   22138.40396977  .00000029  00000+0  70847-4 0  9992
2 44909  82.5221 250.2344 0217770  30.2748 331.0726 12.79713215111661
ORBITAL FACTORY 2 (OF-2)
1 45113U 19071C   22138.35032922  .00036737  00000+0  79830-3 0  9999
2 45113  51.6373 207.3295 0010425  54.6803 305.5156 15.43931015128724
HUSKYSAT-1 (HO-107)     
1 45119U 19071J   22138.40454638  .00033816  00000+0  75444-3 0  9995
2 45119  51.6375 206.9201 0010209  52.3555 307.8356 15.43191573128727
BY70-2                  
1 45857U 20042B   22138.80614377  .00010473  00000+0  14092-2 0  9991
2 45857  97.9554 215.9395 0011003 201.7675 158.3049 14.79373139101073
SALSAT                  
1 46495U 20068K   22138.83186095  .00004296  00000+0  31138-3 0  9999
2 46495  97.7294  80.1292 0017356  24.5997 335.6053 15.04370686 89730
BY70-3                  
1 46839U 20079N   22138.84756487  .00030067  00000+0  73656-3 0  9998
2 46839  97.1998 211.3533 0007131  88.6436  52.4113 15.40674267 85685
RADFXSAT-2 (AO-109)     
1 47311U 21002C   22138.63798836  .00013448  00000+0  54748-3 0  9997
2 47311  60.6849 114.4455 0012119 298.9765  61.0107 15.24768228 73915
UVSQ-SAT                
1 47438U 21006AB  22138.43663429  .00011026  00000+0  58720-3 0  9992
2 47438  97.4388 198.0667 0012317  27.4031 332.7849 15.15320348 72732
DIY-1 (ARDUIQUBE)       
1 47963U 21022AH  22138.52018620  .00024521  00000+0  14038-2 0  9997
2 47963  97.5347  40.2437 0015170 230.9032 129.0851 15.12524771 62424
XW-3 (CAS-9)            
1 50466U 21131B   22138.54076990  .00000405  00000+0  14721-3 0  9991
2 50466  98.5807 215.8080 0003743 223.8049 136.2842 14.38485989 20613
